SAOCOM 1A               
1 43641U 18076A   26078.81958892  .00001000  00000+0  13220-3 0  9994
2 43641  97.8891 266.8493 0001511  87.0985 273.0401 14.82153244402866
H-2A R/B                
1 43682U 18084L   26078.14476322  .00017053  00000+0  40153-3 0  9997
2 43682  98.8717 297.5568 0024640 352.8336   7.2550 15.41735802407234
SAOCOM 1B               
1 46265U 20059A   26078.85080069 -.00000011  00000+0  51866-5 0  9991
2 46265  97.8891 265.9780 0001448  88.0274 272.1105 14.82145274300256
CSS (TIANHE)            
1 48274U 21035A   26078.63256249  .00020528  00000+0  23901-3 0  9990
2 48274  41.4667 147.6390 0005809 335.1563  24.8996 15.61180567279166
COSMOS 2550             
1 48865U 21056A   26078.88533299 -.00000196  00000+0 -11889-6 0  9995
2 48865  67.1448  10.0410 0008158 269.3840  90.6380 15.33828194265028
CZ-2C R/B               
1 52794U 22058K   26078.79660052  .00029784  00000+0  42546-3 0  9995
2 52794  50.1871 266.2700 0041856 243.9541 115.7118 15.54922230211704
CZ-2C R/B               
1 54039U 22132E   26077.97939478  .00038816  00000+0  42932-3 0  9997
2 54039  97.2955  81.5839 0019668  61.8989 298.4254 15.62685246191825
GSLV R/B                
1 54149U 22138AN  26078.74891513  .00002072  00000+0  17740-3 0  9992
2 54149  87.3871 162.9954 0023946 113.1670 247.2088 14.96838203185434
XRISM                   
1 57800U 23137A   26078.80993593  .00004804  00000+0  27027-3 0  9991
2 57800  31.0011 218.1974 0007928 140.8254 219.2959 15.11607413139324
ACS3                    
1 59588U 24077B   26078.79281238  .00025023  00000+0  19859-1 0  9992
2 59588  97.2017  17.6345 0068354  52.9341 307.8047 13.90064816 95606
SZ-21 MODULE            
1 66515U 25246C   26078.55771997  .00027418  00000+0  23011-3 0  9996
2 66515  41.4733 142.5807 0000386 277.1861  82.8937 15.69284939 19624
